[{"OBJECT_NAME":"HELIOS 1B","OBJECT_ID":"1999-064A","EPOCH":"2026-03-24T23:33:04.623264","MEAN_MOTION":14.87755216,"ECCENTRICITY":0.00020171,"INCLINATION":98.1678,"RA_OF_ASC_NODE":346.6729,"ARG_OF_PERICENTER":54.0991,"MEAN_ANOMALY":306.0411,"EPHEMERIS_TYPE":0,"CLASSIFICATION_TYPE":"U","NORAD_CAT_ID":25977,"ELEMENT_SET_NO":999,"REV_AT_EPOCH":68753,"BSTAR":0.00019271906,"MEAN_MOTION_DOT":1.7e-5,"MEAN_MOTION_DDOT":0},{"OBJECT_NAME":"TERRA","OBJECT_ID":"1999-068A","EPOCH":"2026-03-24T22:34:10.735392","MEAN_MOTION":14.61030287,"ECCENTRICITY":0.00034661,"INCLINATION":97.9561,"RA_OF_ASC_NODE":136.7902,"ARG_OF_PERICENTER":119.3779,"MEAN_ANOMALY":53.4008,"EPHEMERIS_TYPE":0,"CLASSIFICATION_TYPE":"U","NORAD_CAT_ID":25994,"ELEMENT_SET_NO":999,"REV_AT_EPOCH":39730,"BSTAR":0.0001020061,"MEAN_MOTION_DOT":4.56e-6,"MEAN_MOTION_DDOT":0},{"OBJECT_NAME":"SL-16 R/B","OBJECT_ID":"2000-006B","EPOCH":"2026-03-24T15:17:43.715328","MEAN_MOTION":14.15824596,"ECCENTRICITY":0.00159763,"INCLINATION":71.0011,"RA_OF_ASC_NODE":66.4042,"ARG_OF_PERICENTER":166.5661,"MEAN_ANOMALY":193.5891,"EPHEMERIS_TYPE":0,"CLASSIFICATION_TYPE":"U","NORAD_CAT_ID":26070,"ELEMENT_SET_NO":999,"REV_AT_EPOCH":35067,"BSTAR":0.00012383043,"MEAN_MOTION_DOT":1.96e-6,"MEAN_MOTION_DDOT":0},{"OBJECT_NAME":"TITAN 4B R/B","OBJECT_ID":"2000-047B","EPOCH":"2026-03-24T22:26:35.460960","MEAN_MOTION":15.09703839,"ECCENTRICITY":0.0039694,"INCLINATION":67.9912,"RA_OF_ASC_NODE":357.6378,"ARG_OF_PERICENTER":17.557,"MEAN_ANOMALY":342.694,"EPHEMERIS_TYPE":0,"CLASSIFICATION_TYPE":"U","NORAD_CAT_ID":26474,"ELEMENT_SET_NO":999,"REV_AT_EPOCH":39521,"BSTAR":0.00024079535,"MEAN_MOTION_DOT":3.826e-5,"MEAN_MOTION_DDOT":0},{"OBJECT_NAME":"ENVISAT","OBJECT_ID":"2002-009A","EPOCH":"2026-03-24T21:50:35.736576","MEAN_MOTION":14.39041991,"ECCENTRICITY":0.00012442,"INCLINATION":98.3753,"RA_OF_ASC_NODE":37.1474,"ARG_OF_PERICENTER":81.3013,"MEAN_ANOMALY":346.4911,"EPHEMERIS_TYPE":0,"CLASSIFICATION_TYPE":"U","NORAD_CAT_ID":27386,"ELEMENT_SET_NO":999,"REV_AT_EPOCH":26136,"BSTAR":5.2999608e-5,"MEAN_MOTION_DOT":1.21e-6,"MEAN_MOTION_DDOT":0},{"OBJECT_NAME":"IDEFIX & ARIANE 42P R/B","OBJECT_ID":"2002-021B","EPOCH":"2026-03-24T22:45:17.563680","MEAN_MOTION":14.31035963,"ECCENTRICITY":0.00124447,"INCLINATION":98.5888,"RA_OF_ASC_NODE":22.3735,"ARG_OF_PERICENTER":138.1224,"MEAN_ANOMALY":222.0913,"EPHEMERIS_TYPE":0,"CLASSIFICATION_TYPE":"U","NORAD_CAT_ID":27422,"ELEMENT_SET_NO":999,"REV_AT_EPOCH":24620,"BSTAR":0.00011942426,"MEAN_MOTION_DOT":2.71e-6,"MEAN_MOTION_DDOT":0},{"OBJECT_NAME":"AQUA","OBJECT_ID":"2002-022A","EPOCH":"2026-03-24T22:35:58.354368","MEAN_MOTION":14.62010474,"ECCENTRICITY":9.739e-5,"INCLINATION":98.42,"RA_OF_ASC_NODE":51.5874,"ARG_OF_PERICENTER":117.1477,"MEAN_ANOMALY":277.3648,"EPHEMERIS_TYPE":0,"CLASSIFICATION_TYPE":"U","NORAD_CAT_ID":27424,"ELEMENT_SET_NO":999,"REV_AT_EPOCH":27096,"BSTAR":0.0002089668,"MEAN_MOTION_DOT":9.99e-6,"MEAN_MOTION_DDOT":0},{"OBJECT_NAME":"CZ-4B R/B","OBJECT_ID":"2002-024C","EPOCH":"2026-03-24T21:04:18.382656","MEAN_MOTION":14.14550186,"ECCENTRICITY":0.00496967,"INCLINATION":98.8807,"RA_OF_ASC_NODE":137.206,"ARG_OF_PERICENTER":341.0636,"MEAN_ANOMALY":192.3708,"EPHEMERIS_TYPE":0,"CLASSIFICATION_TYPE":"U","NORAD_CAT_ID":27432,"ELEMENT_SET_NO":999,"REV_AT_EPOCH":23138,"BSTAR":3.6757477e-5,"MEAN_MOTION_DOT":2.7e-7,"MEAN_MOTION_DDOT":0},{"OBJECT_NAME":"MIDORI II (ADEOS-II)","OBJECT_ID":"2002-056A","EPOCH":"2026-03-24T18:49:54.800256","MEAN_MOTION":14.29295919,"ECCENTRICITY":9.511e-5,"INCLINATION":98.7795,"RA_OF_ASC_NODE":42.369,"ARG_OF_PERICENTER":25.7049,"MEAN_ANOMALY":334.418,"EPHEMERIS_TYPE":0,"CLASSIFICATION_TYPE":"U","NORAD_CAT_ID":27597,"ELEMENT_SET_NO":999,"REV_AT_EPOCH":21245,"BSTAR":0.00013713112,"MEAN_MOTION_DOT":3.04e-6,"MEAN_MOTION_DDOT":0},{"OBJECT_NAME":"H-2A R/B","OBJECT_ID":"2002-056E","EPOCH":"2026-03-24T22:08:13.097184","MEAN_MOTION":14.33770287,"ECCENTRICITY":0.00712581,"INCLINATION":98.3229,"RA_OF_ASC_NODE":43.7105,"ARG_OF_PERICENTER":115.7393,"MEAN_ANOMALY":313.3594,"EPHEMERIS_TYPE":0,"CLASSIFICATION_TYPE":"U","NORAD_CAT_ID":27601,"ELEMENT_SET_NO":999,"REV_AT_EPOCH":21629,"BSTAR":0.00011329614,"MEAN_MOTION_DOT":2.83e-6,"MEAN_MOTION_DDOT":0},{"OBJECT_NAME":"CZ-4B R/B","OBJECT_ID":"2003-049C","EPOCH":"2026-03-24T22:12:00.272160","MEAN_MOTION":14.5503339,"ECCENTRICITY":0.00480389,"INCLINATION":98.6892,"RA_OF_ASC_NODE":79.4292,"ARG_OF_PERICENTER":183.8481,"MEAN_ANOMALY":176.2352,"EPHEMERIS_TYPE":0,"CLASSIFICATION_TYPE":"U","NORAD_CAT_ID":28059,"ELEMENT_SET_NO":999,"REV_AT_EPOCH":18881,"BSTAR":9.3385671e-5,"MEAN_MOTION_DOT":3.57e-6,"MEAN_MOTION_DDOT":0},{"OBJECT_NAME":"CZ-2C R/B","OBJECT_ID":"2004-012C","EPOCH":"2026-03-24T15:08:51.523296","MEAN_MOTION":15.66309633,"ECCENTRICITY":0.00130055,"INCLINATION":97.7186,"RA_OF_ASC_NODE":150.3578,"ARG_OF_PERICENTER":248.8931,"MEAN_ANOMALY":111.0938,"EPHEMERIS_TYPE":0,"CLASSIFICATION_TYPE":"U","NORAD_CAT_ID":28222,"ELEMENT_SET_NO":999,"REV_AT_EPOCH":20661,"BSTAR":0.00052297572,"MEAN_MOTION_DOT":0.0005439,"MEAN_MOTION_DDOT":0},{"OBJECT_NAME":"SL-16 R/B","OBJECT_ID":"2004-021B","EPOCH":"2026-03-24T17:32:34.153440","MEAN_MOTION":14.14593498,"ECCENTRICITY":0.00047647,"INCLINATION":71.0003,"RA_OF_ASC_NODE":200.9271,"ARG_OF_PERICENTER":351.4891,"MEAN_ANOMALY":8.615,"EPHEMERIS_TYPE":0,"CLASSIFICATION_TYPE":"U","NORAD_CAT_ID":28353,"ELEMENT_SET_NO":999,"REV_AT_EPOCH":12496,"BSTAR":4.4149704e-5,"MEAN_MOTION_DOT":3.7e-7,"MEAN_MOTION_DDOT":0},{"OBJECT_NAME":"CZ-4B R/B","OBJECT_ID":"2004-035C","EPOCH":"2026-03-24T19:53:11.331168","MEAN_MOTION":15.29321685,"ECCENTRICITY":0.00299707,"INCLINATION":97.3476,"RA_OF_ASC_NODE":117.8907,"ARG_OF_PERICENTER":274.9711,"MEAN_ANOMALY":84.8108,"EPHEMERIS_TYPE":0,"CLASSIFICATION_TYPE":"U","NORAD_CAT_ID":28415,"ELEMENT_SET_NO":999,"REV_AT_EPOCH":18222,"BSTAR":0.00026533333,"MEAN_MOTION_DOT":7.571e-5,"MEAN_MOTION_DDOT":0},{"OBJECT_NAME":"CZ-2C R/B","OBJECT_ID":"2004-046B","EPOCH":"2026-03-24T23:33:43.263072","MEAN_MOTION":14.26997318,"ECCENTRICITY":0.01405324,"INCLINATION":98.1977,"RA_OF_ASC_NODE":358.0132,"ARG_OF_PERICENTER":109.4893,"MEAN_ANOMALY":252.1532,"EPHEMERIS_TYPE":0,"CLASSIFICATION_TYPE":"U","NORAD_CAT_ID":28480,"ELEMENT_SET_NO":999,"REV_AT_EPOCH":11068,"BSTAR":6.8172485e-5,"MEAN_MOTION_DOT":1.44e-6,"MEAN_MOTION_DDOT":0},{"OBJECT_NAME":"ARIANE 5 R/B","OBJECT_ID":"2004-049H","EPOCH":"2026-03-24T22:12:10.679040","MEAN_MOTION":14.85291957,"ECCENTRICITY":0.00830158,"INCLINATION":98.2651,"RA_OF_ASC_NODE":252.955,"ARG_OF_PERICENTER":302.1554,"MEAN_ANOMALY":57.1625,"EPHEMERIS_TYPE":0,"CLASSIFICATION_TYPE":"U","NORAD_CAT_ID":28499,"ELEMENT_SET_NO":999,"REV_AT_EPOCH":14805,"BSTAR":9.0993271e-5,"MEAN_MOTION_DOT":7.65e-6,"MEAN_MOTION_DDOT":0},{"OBJECT_NAME":"CZ-2D R/B","OBJECT_ID":"2005-024B","EPOCH":"2026-03-24T18:36:38.732256","MEAN_MOTION":15.61504185,"ECCENTRICITY":0.00030939,"INCLINATION":97.3588,"RA_OF_ASC_NODE":99.4898,"ARG_OF_PERICENTER":359.7671,"MEAN_ANOMALY":0.3585,"EPHEMERIS_TYPE":0,"CLASSIFICATION_TYPE":"U","NORAD_CAT_ID":28738,"ELEMENT_SET_NO":999,"REV_AT_EPOCH":14213,"BSTAR":0.00051871852,"MEAN_MOTION_DOT":0.00044439,"MEAN_MOTION_DDOT":0}]
